[{"OBJECT_NAME":"FLOCK 4G-15","OBJECT_ID":"2025-009BX","EPOCH":"2026-03-09T17:13:37.807680","MEAN_MOTION":15.27266411,"ECCENTRICITY":0.00036988,"INCLINATION":97.4054,"RA_OF_ASC_NODE":151.1927,"ARG_OF_PERICENTER":316.8208,"MEAN_ANOMALY":43.274,"EPHEMERIS_TYPE":0,"CLASSIFICATION_TYPE":"U","NORAD_CAT_ID":62678,"ELEMENT_SET_NO":999,"REV_AT_EPOCH":12135,"BSTAR":0.00047574812,"MEAN_MOTION_DOT":0.00012647,"MEAN_MOTION_DDOT":0},{"OBJECT_NAME":"STARLINK-35705","OBJECT_ID":"2025-294K","EPOCH":"2026-03-09T23:15:18.049824","MEAN_MOTION":15.2759034,"ECCENTRICITY":0.00014908,"INCLINATION":43.0037,"RA_OF_ASC_NODE":36.3444,"ARG_OF_PERICENTER":249.2115,"MEAN_ANOMALY":110.8577,"EPHEMERIS_TYPE":0,"CLASSIFICATION_TYPE":"U","NORAD_CAT_ID":67039,"ELEMENT_SET_NO":999,"REV_AT_EPOCH":1484,"BSTAR":0.0011698108,"MEAN_MOTION_DOT":0.00032079,"MEAN_MOTION_DDOT":0}]
